CCSDS_OMM_VERS = 2.0
CREATION_DATE  = 
ORIGINATOR     = 

OBJECT_NAME    = AQUA
OBJECT_ID      = 2002-022A
CENTER_NAME    = EARTH
REF_FRAME      = TEME
TIME_SYSTEM    = UTC
MEAN_ELEMENT_THEORY = SGP/SGP4

EPOCH          = 2026-03-21T14:13:23.665728
MEAN_MOTION    = 14.62003536
ECCENTRICITY   = .00008435
INCLINATION    = 98.4196
RA_OF_ASC_NODE = 48.1762
ARG_OF_PERICENTER = 114.5178
MEAN_ANOMALY   = 303.7992

EPHEMERIS_TYPE = 0
CLASSIFICATION_TYPE = U
NORAD_CAT_ID   = 27424
ELEMENT_SET_NO = 999
REV_AT_EPOCH   = 27047
BSTAR          = .20222934E-3
MEAN_MOTION_DOT = .965E-5
MEAN_MOTION_DDOT = 0

CCSDS_OMM_VERS = 2.0
CREATION_DATE  = 
ORIGINATOR     = 

OBJECT_NAME    = CZ-4B R/B
OBJECT_ID      = 2002-024C
CENTER_NAME    = EARTH
REF_FRAME      = TEME
TIME_SYSTEM    = UTC
MEAN_ELEMENT_THEORY = SGP/SGP4

EPOCH          = 2026-03-21T14:53:16.518048
MEAN_MOTION    = 14.14549827
ECCENTRICITY   = .00498599
INCLINATION    = 98.8812
RA_OF_ASC_NODE = 133.9655
ARG_OF_PERICENTER = 350.3704
MEAN_ANOMALY   = 163.0714

EPHEMERIS_TYPE = 0
CLASSIFICATION_TYPE = U
NORAD_CAT_ID   = 27432
ELEMENT_SET_NO = 999
REV_AT_EPOCH   = 23092
BSTAR          = .44892154E-4
MEAN_MOTION_DOT = .42E-6
MEAN_MOTION_DDOT = 0

CCSDS_OMM_VERS = 2.0
CREATION_DATE  = 
ORIGINATOR     = 

OBJECT_NAME    = MIDORI II (ADEOS-II)
OBJECT_ID      = 2002-056A
CENTER_NAME    = EARTH
REF_FRAME      = TEME
TIME_SYSTEM    = UTC
MEAN_ELEMENT_THEORY = SGP/SGP4

EPOCH          = 2026-03-21T10:11:13.060608
MEAN_MOTION    = 14.29293684
ECCENTRICITY   = .00010987
INCLINATION    = 98.7790
RA_OF_ASC_NODE = 38.9846
ARG_OF_PERICENTER = 27.9753
MEAN_ANOMALY   = 332.1487

EPHEMERIS_TYPE = 0
CLASSIFICATION_TYPE = U
NORAD_CAT_ID   = 27597
ELEMENT_SET_NO = 999
REV_AT_EPOCH   = 21197
BSTAR          = .1333184E-3
MEAN_MOTION_DOT = .294E-5
MEAN_MOTION_DDOT = 0

CCSDS_OMM_VERS = 2.0
CREATION_DATE  = 
ORIGINATOR     = 

OBJECT_NAME    = H-2A R/B
OBJECT_ID      = 2002-056E
CENTER_NAME    = EARTH
REF_FRAME      = TEME
TIME_SYSTEM    = UTC
MEAN_ELEMENT_THEORY = SGP/SGP4

EPOCH          = 2026-03-21T12:16:06.226752
MEAN_MOTION    = 14.33768197
ECCENTRICITY   = .00711321
INCLINATION    = 98.3224
RA_OF_ASC_NODE = 40.4282
ARG_OF_PERICENTER = 125.7612
MEAN_ANOMALY   = 346.4038

EPHEMERIS_TYPE = 0
CLASSIFICATION_TYPE = U
NORAD_CAT_ID   = 27601
ELEMENT_SET_NO = 999
REV_AT_EPOCH   = 21580
BSTAR          = .10960556E-3
MEAN_MOTION_DOT = .272E-5
MEAN_MOTION_DDOT = 0

CCSDS_OMM_VERS = 2.0
CREATION_DATE  = 
ORIGINATOR     = 

OBJECT_NAME    = CZ-4B R/B
OBJECT_ID      = 2003-049C
CENTER_NAME    = EARTH
REF_FRAME      = TEME
TIME_SYSTEM    = UTC
MEAN_ELEMENT_THEORY = SGP/SGP4

EPOCH          = 2026-03-21T13:19:46.418304
MEAN_MOTION    = 14.55030817
ECCENTRICITY   = .00478333
INCLINATION    = 98.6890
RA_OF_ASC_NODE = 75.9267
ARG_OF_PERICENTER = 194.1797
MEAN_ANOMALY   = 165.8059

EPHEMERIS_TYPE = 0
CLASSIFICATION_TYPE = U
NORAD_CAT_ID   = 28059
ELEMENT_SET_NO = 999
REV_AT_EPOCH   = 18832
BSTAR          = .96289441E-4
MEAN_MOTION_DOT = .369E-5
MEAN_MOTION_DDOT = 0

CCSDS_OMM_VERS = 2.0
CREATION_DATE  = 
ORIGINATOR     = 

OBJECT_NAME    = CZ-2C R/B
OBJECT_ID      = 2004-012C
CENTER_NAME    = EARTH
REF_FRAME      = TEME
TIME_SYSTEM    = UTC
MEAN_ELEMENT_THEORY = SGP/SGP4

EPOCH          = 2026-03-21T10:28:25.395456
MEAN_MOTION    = 15.65861385
ECCENTRICITY   = .00129666
INCLINATION    = 97.7193
RA_OF_ASC_NODE = 146.8524
ARG_OF_PERICENTER = 261.6055
MEAN_ANOMALY   = 98.3734

EPHEMERIS_TYPE = 0
CLASSIFICATION_TYPE = U
NORAD_CAT_ID   = 28222
ELEMENT_SET_NO = 999
REV_AT_EPOCH   = 20611
BSTAR          = .81123756E-3
MEAN_MOTION_DOT = .83219E-3
MEAN_MOTION_DDOT = 0

CCSDS_OMM_VERS = 2.0
CREATION_DATE  = 
ORIGINATOR     = 

OBJECT_NAME    = SL-16 R/B
OBJECT_ID      = 2004-021B
CENTER_NAME    = EARTH
REF_FRAME      = TEME
TIME_SYSTEM    = UTC
MEAN_ELEMENT_THEORY = SGP/SGP4

EPOCH          = 2026-03-21T13:10:22.831968
MEAN_MOTION    = 14.14593368
ECCENTRICITY   = .00046241
INCLINATION    = 70.9999
RA_OF_ASC_NODE = 207.6046
ARG_OF_PERICENTER = 354.9145
MEAN_ANOMALY   = 5.1929

EPHEMERIS_TYPE = 0
CLASSIFICATION_TYPE = U
NORAD_CAT_ID   = 28353
ELEMENT_SET_NO = 999
REV_AT_EPOCH   = 12451
BSTAR          = -.40934718E-4
MEAN_MOTION_DOT = -.126E-5
MEAN_MOTION_DDOT = 0

CCSDS_OMM_VERS = 2.0
CREATION_DATE  = 
ORIGINATOR     = 

OBJECT_NAME    = CZ-4B R/B
OBJECT_ID      = 2004-035C
CENTER_NAME    = EARTH
REF_FRAME      = TEME
TIME_SYSTEM    = UTC
MEAN_ELEMENT_THEORY = SGP/SGP4

EPOCH          = 2026-03-21T13:22:05.727072
MEAN_MOTION    = 15.29258634
ECCENTRICITY   = .00300995
INCLINATION    = 97.3474
RA_OF_ASC_NODE = 114.6575
ARG_OF_PERICENTER = 287.3238
MEAN_ANOMALY   = 72.4710

EPHEMERIS_TYPE = 0
CLASSIFICATION_TYPE = U
NORAD_CAT_ID   = 28415
ELEMENT_SET_NO = 999
REV_AT_EPOCH   = 18172
BSTAR          = .35501257E-3
MEAN_MOTION_DOT = .10141E-3
MEAN_MOTION_DDOT = 0

CCSDS_OMM_VERS = 2.0
CREATION_DATE  = 
ORIGINATOR     = 

OBJECT_NAME    = CZ-2C R/B
OBJECT_ID      = 2004-046B
CENTER_NAME    = EARTH
REF_FRAME      = TEME
TIME_SYSTEM    = UTC
MEAN_ELEMENT_THEORY = SGP/SGP4

EPOCH          = 2026-03-21T11:25:13.179072
MEAN_MOTION    = 14.26995946
ECCENTRICITY   = .01404362
INCLINATION    = 98.1980
RA_OF_ASC_NODE = 354.7258
ARG_OF_PERICENTER = 119.7757
MEAN_ANOMALY   = 241.7478

EPHEMERIS_TYPE = 0
CLASSIFICATION_TYPE = U
NORAD_CAT_ID   = 28480
ELEMENT_SET_NO = 999
REV_AT_EPOCH   = 11018
BSTAR          = .64615688E-4
MEAN_MOTION_DOT = .135E-5
MEAN_MOTION_DDOT = 0

CCSDS_OMM_VERS = 2.0
CREATION_DATE  = 
ORIGINATOR     = 

OBJECT_NAME    = ARIANE 5 R/B
OBJECT_ID      = 2004-049H
CENTER_NAME    = EARTH
REF_FRAME      = TEME
TIME_SYSTEM    = UTC
MEAN_ELEMENT_THEORY = SGP/SGP4

EPOCH          = 2026-03-21T10:07:42.531456
MEAN_MOTION    = 14.85286277
ECCENTRICITY   = .00831764
INCLINATION    = 98.2644
RA_OF_ASC_NODE = 249.3197
ARG_OF_PERICENTER = 313.6443
MEAN_ANOMALY   = 45.7893

EPHEMERIS_TYPE = 0
CLASSIFICATION_TYPE = U
NORAD_CAT_ID   = 28499
ELEMENT_SET_NO = 999
REV_AT_EPOCH   = 14753
BSTAR          = .89302604E-4
MEAN_MOTION_DOT = .75E-5
MEAN_MOTION_DDOT = 0

CCSDS_OMM_VERS = 2.0
CREATION_DATE  = 
ORIGINATOR     = 

OBJECT_NAME    = CZ-2D R/B
OBJECT_ID      = 2005-024B
CENTER_NAME    = EARTH
REF_FRAME      = TEME
TIME_SYSTEM    = UTC
MEAN_ELEMENT_THEORY = SGP/SGP4

EPOCH          = 2026-03-21T13:42:12.091392
MEAN_MOTION    = 15.61177051
ECCENTRICITY   = .00037455
INCLINATION    = 97.3583
RA_OF_ASC_NODE = 96.1617
ARG_OF_PERICENTER = 12.0563
MEAN_ANOMALY   = 348.0783

EPHEMERIS_TYPE = 0
CLASSIFICATION_TYPE = U
NORAD_CAT_ID   = 28738
ELEMENT_SET_NO = 999
REV_AT_EPOCH   = 14163
BSTAR          = .70469679E-3
MEAN_MOTION_DOT = .59774E-3
MEAN_MOTION_DDOT = 0

CCSDS_OMM_VERS = 2.0
CREATION_DATE  = 
ORIGINATOR     = 

OBJECT_NAME    = ALOS (DAICHI)
OBJECT_ID      = 2006-002A
CENTER_NAME    = EARTH
REF_FRAME      = TEME
TIME_SYSTEM    = UTC
MEAN_ELEMENT_THEORY = SGP/SGP4

EPOCH          = 2026-03-21T09:59:21.952320
MEAN_MOTION    = 14.69845399
ECCENTRICITY   = .00007026
INCLINATION    = 98.1240
RA_OF_ASC_NODE = 36.3145
ARG_OF_PERICENTER = 87.7130
MEAN_ANOMALY   = 272.4156

EPHEMERIS_TYPE = 0
CLASSIFICATION_TYPE = U
NORAD_CAT_ID   = 28931
ELEMENT_SET_NO = 999
REV_AT_EPOCH   = 7520
BSTAR          = .22916718E-3
MEAN_MOTION_DOT = .132E-4
MEAN_MOTION_DDOT = 0

